{
    "links": {
        "self": "http://www.neowsapp.com/rest/v1/neo/3748659?api_key=iIulBulltgU6a56xZRHN4H3l9WmuAYTsLGpBGhQ2"
    },
    "id": "3748659",
    "neo_reference_id": "3748659",
    "name": "(2016 FD22)",
    "designation": "2016 FD22",
    "nasa_jpl_url": "http://ssd.jpl.nasa.gov/sbdb.cgi?sstr=3748659",
    "absolute_magnitude_h": 23.7,
    "estimated_diameter": {
        "kilometers": {
            "estimated_diameter_min": 0.0483676488,
            "estimated_diameter_max": 0.1081533507
        },
        "meters": {
            "estimated_diameter_min": 48.3676488219,
            "estimated_diameter_max": 108.1533506775
        },
        "miles": {
            "estimated_diameter_min": 0.0300542543,
            "estimated_diameter_max": 0.0672033557
        },
        "feet": {
            "estimated_diameter_min": 158.6865169607,
            "estimated_diameter_max": 354.8338390368
        }
    },
    "is_potentially_hazardous_asteroid": false,
    "close_approach_data": [
        {
            "close_approach_date": "1915-10-16",
            "close_approach_date_full": "1915-Oct-16 02:20",
            "epoch_date_close_approach": -1710798000000,
            "relative_velocity": {
                "kilometers_per_second": "25.5279142526",
                "kilometers_per_hour": "91900.4913092714",
                "miles_per_hour": "57103.3913915859"
            },
            "miss_distance": {
                "astronomical": "0.4124899523",
                "lunar": "160.4585914447",
                "kilometers": "61707618.260481601",
                "miles": "38343335.9829480538"
            },
            "orbiting_body": "Earth"
        },
        {
            "close_approach_date": "1921-12-21",
            "close_approach_date_full": "1921-Dec-21 21:00",
            "epoch_date_close_approach": -1515639600000,
            "relative_velocity": {
                "kilometers_per_second": "10.7081023603",
                "kilometers_per_hour": "38549.1684971261",
                "miles_per_hour": "23952.9541697837"
            },
            "miss_distance": {
                "astronomical": "0.0966936303",
                "lunar": "37.6138221867",
                "kilometers": "14465161.135447461",
                "miles": "8988234.3396025218"
            },
            "orbiting_body": "Mars"
        },
        {
            "close_approach_date": "2011-04-22",
            "close_approach_date_full": "2011-Apr-22 20:33",
            "epoch_date_close_approach": 1303504380000,
            "relative_velocity": {
                "kilometers_per_second": "14.112808847",
                "kilometers_per_hour": "50806.1118492598",
                "miles_per_hour": "31568.9421098914"
            },
            "miss_distance": {
                "astronomical": "0.3464677059",
                "lunar": "134.7759375951",
                "kilometers": "51830830.826426433",
                "miles": "32206184.8549054554"
            },
            "orbiting_body": "Earth"
        },
        {
            "close_approach_date": "2016-04-12",
            "close_approach_date_full": "2016-Apr-12 12:32",
            "epoch_date_close_approach": 1460464320000,
            "relative_velocity": {
                "kilometers_per_second": "13.416404468",
                "kilometers_per_hour": "48299.05608471",
                "miles_per_hour": "30011.1551544133"
            },
            "miss_distance": {
                "astronomical": "0.4519710985",
                "lunar": "175.8167573165",
                "kilometers": "67613913.637160195",
                "miles": "42013337.749772891"
            },
            "orbiting_body": "Earth"
        },
        {
            "close_approach_date": "2016-09-14",
            "close_approach_date_full": "2016-Sep-14 17:49",
            "epoch_date_close_approach": 1473875340000,
            "relative_velocity": {
                "kilometers_per_second": "14.7613620668",
                "kilometers_per_hour": "53140.903440529",
                "miles_per_hour": "33019.6908072553"
            },
            "miss_distance": {
                "astronomical": "0.1433728974",
                "lunar": "55.7720570886",
                "kilometers": "21448280.066768538",
                "miles": "13327343.2363723044"
            },
            "orbiting_body": "Earth"
        }
    ],
    "orbital_data": {
        "orbit_id": "5",
        "orbit_determination_date": "2017-04-06 08:27:00",
        "first_observation_date": "2016-03-30",
        "last_observation_date": "2016-04-12",
        "data_arc_in_days": 13,
        "observations_used": 14,
        "orbit_uncertainty": "8",
        "minimum_orbit_intersection": ".00882649",
        "jupiter_tisserand_invariant": "4.553",
        "epoch_osculation": "2457485.5",
        "eccentricity": ".3804040912650792",
        "semi_major_axis": "1.414051026371538",
        "inclination": "25.10391984924215",
        "ascending_node_longitude": ".8311227390287276",
        "orbital_period": "614.1805357472253",
        "perihelion_distance": ".8761402306822205",
        "perihelion_argument": "304.595053161058",
        "aphelion_distance": "1.951961822060855",
        "perihelion_time": "2457603.934863724604",
        "mean_anomaly": "290.5797750673019",
        "mean_motion": ".5861468722091887",
        "equinox": "J2000",
        "orbit_class": {
            "orbit_class_type": "APO",
            "orbit_class_description": "Near-Earth asteroid orbits which cross the Earth’s orbit similar to that of 1862 Apollo",
            "orbit_class_range": "a (semi-major axis) > 1.0 AU; q (perihelion) < 1.017 AU"
        }
    },
    "is_sentry_object": false
}